file_name,idField,source_org,source_file,original_id,type,name,address,city,state,zip_code,county,location_description,phone,url,latitude,longitude
food-data/Cleaned_data_files//additional_food_bucks_sites.csv,2,The Food Trust,Additional Food Bucks sites.xlsx,,,Main Street Farmers Market,139 S Main Street,Washington,PA,15301,Allegheny,,,,40.172985,-80.246581
food-data/Cleaned_data_files//bridgeway_capital_hffi.csv,4,Pittsburgh Food Policy Council,Bridgeway Capital - HFFI Funds.xlsx,,supermarket,52nd Street Market,601 52nd Street,Pittsburgh,PA,15201,Allegheny,,,,40.478792,-79.951927
food-data/Cleaned_data_files//bridgeway_capital_hffi.csv,5,Pittsburgh Food Policy Council,Bridgeway Capital - HFFI Funds.xlsx,,supermarket,Perry's Honeydripper,7006 Frankstown Avenue,Pittsburgh,PA,15208,Allegheny,,,,40.458207,-79.900861
food-data/Cleaned_data_files//bridgeway_capital_hffi.csv,7,Pittsburgh Food Policy Council,Bridgeway Capital - HFFI Funds.xlsx,,supermarket,Butcher on Butler,5145 Butler Street,Pittsburgh,PA,15201,Allegheny,,,,40.479645,-79.955229
food-data/Cleaned_data_files//bridgeway_capital_hffi.csv,8,Pittsburgh Food Policy Council,Bridgeway Capital - HFFI Funds.xlsx,,supermarket,Gluten Free Goat,4905 Penn Avenue,Pittsburgh,PA,15224,Allegheny,,,,40.465487,-79.944923
food-data/Cleaned_data_files//bridgeway_capital_hffi.csv,9,Pittsburgh Food Policy Council,Bridgeway Capital - HFFI Funds.xlsx,,supermarket,LA Market,511 Larimer Avenue,Pittsburgh,PA,15206,Allegheny,,,,40.465564,-79.914164
food-data/Cleaned_data_files//bridgeway_capital_hffi.csv,10,Pittsburgh Food Policy Council,Bridgeway Capital - HFFI Funds.xlsx,,supermarket,Day La Soul,829-831 E. Warrington Avenue,Pittsburgh,PA,15210,Allegheny,,,,40.4216501,-79.9951377
food-data/Cleaned_data_files//cleaned_agh_wic.csv,11,Western Pennsylvania Regional Data Center,Allegheny_County_WIC_Vendor_Locations.csv,3150892,,Community Market,1710 Pacific Avenue,Natrona Heights,PA,15065,,,,,40.621111,-79.724091
food-data/Cleaned_data_files//cleaned_agh_wic.csv,12,Western Pennsylvania Regional Data Center,Allegheny_County_WIC_Vendor_Locations.csv,3148048,,Community Market,1117 Mill Town Road,Verona,PA,15147,,,,,40.4985,-79.79006
food-data/Cleaned_data_files//cleaned_agh_wic.csv,13,Western Pennsylvania Regional Data Center,Allegheny_County_WIC_Vendor_Locations.csv,3083227,,Coraopolis Cash Market,1017 Fourth Avenue,Coraopolis,PA,15108,,,,,40.518315,-80.162816
food-data/Cleaned_data_files//cleaned_agh_wic.csv,14,Western Pennsylvania Regional Data Center,Allegheny_County_WIC_Vendor_Locations.csv,2693039,supermarket,Giant Eagle,5055 Library Road,Bethel Park,PA,15102,,,,,40.338708,-80.024353
food-data/Cleaned_data_files//cleaned_agh_wic.csv,15,Western Pennsylvania Regional Data Center,Allegheny_County_WIC_Vendor_Locations.csv,2805222,supermarket,Giant Eagle,254 Yost Boulevard,Braddock Hills,PA,15221,,,,,40.414499,-79.855295
food-data/Cleaned_data_files//cleaned_agh_wic.csv,16,Western Pennsylvania Regional Data Center,Allegheny_County_WIC_Vendor_Locations.csv,3161264,supermarket,Giant Eagle,600 Towne Square Way,Brentwood,PA,15227,,,,,40.366271,-79.983039
food-data/Cleaned_data_files//cleaned_agh_wic.csv,17,Western Pennsylvania Regional Data Center,Allegheny_County_WIC_Vendor_Locations.csv,2654758,supermarket,Giant Eagle,132 Ben Avon Heights Road,Camp Horne,PA,15237,,,,,40.522015,-80.070503
food-data/Cleaned_data_files//cleaned_agh_wic.csv,19,Western Pennsylvania Regional Data Center,Allegheny_County_WIC_Vendor_Locations.csv,3029807,supermarket,Giant Eagle,9901 Mountain View Drive,Century III,PA,15122,,,,,40.339666,-79.949754
food-data/Cleaned_data_files//cleaned_agh_wic.csv,21,Western Pennsylvania Regional Data Center,Allegheny_County_WIC_Vendor_Locations.csv,80632,supermarket,Giant Eagle,1705 S. Braddock Avenue,Edgewood,PA,15218,,,,,40.425644,-79.886852
food-data/Cleaned_data_files//cleaned_agh_wic.csv,22,Western Pennsylvania Regional Data Center,Allegheny_County_WIC_Vendor_Locations.csv,3168164,supermarket,Giant Eagle,800 Mckeesport Road,Elizabeth,PA,15037,,,,,40.279897,-79.875592
food-data/Cleaned_data_files//cleaned_agh_wic.csv,23,Western Pennsylvania Regional Data Center,Allegheny_County_WIC_Vendor_Locations.csv,2845101,supermarket,Giant Eagle,910 Freeport Road,Fox Chapel,PA,15238,,,,,40.48978,-79.89374
food-data/Cleaned_data_files//cleaned_agh_wic.csv,24,Western Pennsylvania Regional Data Center,Allegheny_County_WIC_Vendor_Locations.csv,3099409,supermarket,Giant Eagle,9001 Frankstown Road,Frankstown,PA,15235,,,,,40.462675,-79.865261
food-data/Cleaned_data_files//cleaned_agh_wic.csv,26,Western Pennsylvania Regional Data Center,Allegheny_County_WIC_Vendor_Locations.csv,2835432,supermarket,Giant Eagle,420 East Waterfront Drive,Homestead,PA,15120,,,,,40.411484,-79.90877
food-data/Cleaned_data_files//cleaned_agh_wic.csv,27,Western Pennsylvania Regional Data Center,Allegheny_County_WIC_Vendor_Locations.csv,2701552,supermarket,Giant Eagle,1800 Mckees Rocks Road,Kennedy Twp.,PA,15136,,,,,40.467797,-80.097647
food-data/Cleaned_data_files//cleaned_agh_wic.csv,29,Western Pennsylvania Regional Data Center,Allegheny_County_WIC_Vendor_Locations.csv,3119721,supermarket,Giant Eagle,4680 Old William Penn Highway,Monroeville,PA,15146,,,,,40.439216,-79.743366
food-data/Cleaned_data_files//cleaned_agh_wic.csv,30,Western Pennsylvania Regional Data Center,Allegheny_County_WIC_Vendor_Locations.csv,2952691,supermarket,Giant Eagle,4010 Monroeville Boulevard,Monroeville Blvd.,PA,15146,,,,,40.432367,-79.772169
food-data/Cleaned_data_files//cleaned_agh_wic.csv,31,Western Pennsylvania Regional Data Center,Allegheny_County_WIC_Vendor_Locations.csv,3168226,supermarket,Giant Eagle,5990 University Boulevard,Moon Twp.,PA,15108,,,,,40.521952,-80.220568
food-data/Cleaned_data_files//cleaned_agh_wic.csv,32,Western Pennsylvania Regional Data Center,Allegheny_County_WIC_Vendor_Locations.csv,16296,supermarket,Giant Eagle,8050 Mcknight Road,North Hills,PA,15237,,,,,40.554889,-80.018984
food-data/Cleaned_data_files//cleaned_agh_wic.csv,34,Western Pennsylvania Regional Data Center,Allegheny_County_WIC_Vendor_Locations.csv,3174633,supermarket,Giant Eagle,1701 Lincoln Highway,North Versailles,PA,15137,,,,,40.372166,-79.788541
food-data/Cleaned_data_files//cleaned_agh_wic.csv,36,Western Pennsylvania Regional Data Center,Allegheny_County_WIC_Vendor_Locations.csv,2663456,supermarket,Giant Eagle,230 Rodi Road,Penn Hills,PA,15235,,,,,40.461922,-79.825159
food-data/Cleaned_data_files//cleaned_agh_wic.csv,38,Western Pennsylvania Regional Data Center,Allegheny_County_WIC_Vendor_Locations.csv,3158672,supermarket,Giant Eagle,155 Towne Centre Drive,Pine Township,PA,15090,,,,,40.63379,-80.0554
food-data/Cleaned_data_files//cleaned_agh_wic.csv,39,Western Pennsylvania Regional Data Center,Allegheny_County_WIC_Vendor_Locations.csv,3152683,supermarket,Giant Eagle,100 Settlers Ridge Center Drive,Robinson Twp.,PA,15205,,,,,40.441646,-80.151352
food-data/Cleaned_data_files//cleaned_agh_wic.csv,40,Western Pennsylvania Regional Data Center,Allegheny_County_WIC_Vendor_Locations.csv,2760795,supermarket,Giant Eagle,5550 Centre Avenue,Shadyside,PA,15232,,,,,40.456474,-79.934462
food-data/Cleaned_data_files//cleaned_agh_wic.csv,41,Western Pennsylvania Regional Data Center,Allegheny_County_WIC_Vendor_Locations.csv,3155863,supermarket,Giant Eagle,1671 Butler Plank Road,Shaler,PA,15116,,,,,40.537553,-79.964918
food-data/Cleaned_data_files//cleaned_agh_wic.csv,43,Western Pennsylvania Regional Data Center,Allegheny_County_WIC_Vendor_Locations.csv,2929702,supermarket,Giant Eagle,2021 Wharton Street,South Side,PA,15203,,,,,40.432044,-79.977774
food-data/Cleaned_data_files//cleaned_agh_wic.csv,44,Western Pennsylvania Regional Data Center,Allegheny_County_WIC_Vendor_Locations.csv,2977355,supermarket,Giant Eagle,1901 Murray Avenue,Squirrel Hill,PA,15217,,,,,40.435673,-79.922564
food-data/Cleaned_data_files//cleaned_agh_wic.csv,45,Western Pennsylvania Regional Data Center,Allegheny_County_WIC_Vendor_Locations.csv,2869549,supermarket,Giant Eagle,200 Allegheny River Boulevard,Verona,PA,15147,,,,,40.49926,-79.844413
food-data/Cleaned_data_files//cleaned_agh_wic.csv,46,Western Pennsylvania Regional Data Center,Allegheny_County_WIC_Vendor_Locations.csv,2914092,supermarket,Giant Eagle,7000 Oxford Drive,Village Square,PA,15102,,,,,40.346817,-80.047257
food-data/Cleaned_data_files//cleaned_agh_wic.csv,47,Western Pennsylvania Regional Data Center,Allegheny_County_WIC_Vendor_Locations.csv,2712572,supermarket,Giant Eagle,1717 Cochran Road,Virginia Manor,PA,15220,,,,,40.39248,-80.06582
food-data/Cleaned_data_files//cleaned_agh_wic.csv,48,Western Pennsylvania Regional Data Center,Allegheny_County_WIC_Vendor_Locations.csv,3141762,supermarket,Giant Eagle,1356 Hoffman Boulevard,West Mifflin,PA,15122,,,,,40.384128,-79.868332
food-data/Cleaned_data_files//cleaned_agh_wic.csv,50,Western Pennsylvania Regional Data Center,Allegheny_County_WIC_Vendor_Locations.csv,2976969,supermarket,Giant Eagle,2001 Lincoln Way,White Oak,PA,15131,,,,,40.337059,-79.805657
food-data/Cleaned_data_files//cleaned_agh_wic.csv,51,Western Pennsylvania Regional Data Center,Allegheny_County_WIC_Vendor_Locations.csv,3162107,supermarket,Giant Eagle Express,2611 Freeport Road,Harmar,PA,15238,,,,,40.537821,-79.838774
food-data/Cleaned_data_files//cleaned_agh_wic.csv,52,Western Pennsylvania Regional Data Center,Allegheny_County_WIC_Vendor_Locations.csv,3162338,,Gorkhali Store,2116 Brownsville Road,Mt. Oliver,PA,15210,,,,,40.392705,-79.987105
food-data/Cleaned_data_files//cleaned_agh_wic.csv,53,Western Pennsylvania Regional Data Center,Allegheny_County_WIC_Vendor_Locations.csv,2796169,,Himalaya Grocery,3621 Brownsville Road,Brentwood,PA,15227,,,,,40.373299,-79.975256
food-data/Cleaned_data_files//cleaned_agh_wic.csv,54,Western Pennsylvania Regional Data Center,Allegheny_County_WIC_Vendor_Locations.csv,3136218,supermarket,Kuhn's,661 Lincoln Avenue,Bellevue,PA,15202,,,,,40.49717,-80.060283
food-data/Cleaned_data_files//cleaned_agh_wic.csv,55,Western Pennsylvania Regional Data Center,Allegheny_County_WIC_Vendor_Locations.csv,78112,supermarket,Kuhn's,825 Beaver Grade Road,Moon Twp.,PA,15108,,,,,40.517395,-80.219291
food-data/Cleaned_data_files//cleaned_agh_wic.csv,56,Western Pennsylvania Regional Data Center,Allegheny_County_WIC_Vendor_Locations.csv,2782779,supermarket,Kuhn's,4801 Mcknight Road,North Hills,PA,15237,,,,,40.52485,-80.0077
food-data/Cleaned_data_files//cleaned_agh_wic.csv,57,Western Pennsylvania Regional Data Center,Allegheny_County_WIC_Vendor_Locations.csv,9200,supermarket,Kuhn's,1130 Highwood Street,North Side,PA,15212,,,,,40.468558,-80.026566
food-data/Cleaned_data_files//cleaned_agh_wic.csv,58,Western Pennsylvania Regional Data Center,Allegheny_County_WIC_Vendor_Locations.csv,84011,supermarket,Kuhn's,3125 Banksville Road,South Hills,PA,15216,,,,,40.399808,-80.043455
food-data/Cleaned_data_files//cleaned_agh_wic.csv,59,Western Pennsylvania Regional Data Center,Allegheny_County_WIC_Vendor_Locations.csv,1093082,supermarket,Kuhn's,700 Buelah Road,Turtle Creek,PA,15145,,,,,40.42695,-79.83493
food-data/Cleaned_data_files//cleaned_agh_wic.csv,61,Western Pennsylvania Regional Data Center,Allegheny_County_WIC_Vendor_Locations.csv,2804345,,Murray Avenue Kosher,1916 Murray Avenue,Squirrel Hill,PA,15217,,,,,40.435512,-79.923029
food-data/Cleaned_data_files//cleaned_agh_wic.csv,62,Western Pennsylvania Regional Data Center,Allegheny_County_WIC_Vendor_Locations.csv,3175606,,Pittsburgh Commissary,79 Soldiers Lane,Moon Twp.,PA,15108,,,,,40.501879,-80.218445
food-data/Cleaned_data_files//cleaned_agh_wic.csv,63,Western Pennsylvania Regional Data Center,Allegheny_County_WIC_Vendor_Locations.csv,3040453,,Save A Lot,25 Foster Avenue,Crafton,PA,15205,,,,,40.440703,-80.069422
food-data/Cleaned_data_files//cleaned_agh_wic.csv,64,Western Pennsylvania Regional Data Center,Allegheny_County_WIC_Vendor_Locations.csv,3168198,,Sav-A-Lot,9 Duquesne Plaza,Duquesne,PA,15110,,,,,40.374697,-79.8469
food-data/Cleaned_data_files//cleaned_agh_wic.csv,65,Western Pennsylvania Regional Data Center,Allegheny_County_WIC_Vendor_Locations.csv,3166464,,Sav-A-Lot,355 Lincoln Highway,North Versailles,PA,15137,,,,,40.384491,-79.821281
food-data/Cleaned_data_files//cleaned_agh_wic.csv,67,Western Pennsylvania Regional Data Center,Allegheny_County_WIC_Vendor_Locations.csv,2691661,,Shop N Save,5001 Library Road,Bethel Park,PA,15102,,,,,40.341029,-80.024486
food-data/Cleaned_data_files//cleaned_agh_wic.csv,68,Western Pennsylvania Regional Data Center,Allegheny_County_WIC_Vendor_Locations.csv,48814,,Shop N Save,1119 Brownsville Road,Brentwood,PA,15210,,,,,40.404833,-79.989725
food-data/Cleaned_data_files//cleaned_agh_wic.csv,69,Western Pennsylvania Regional Data Center,Allegheny_County_WIC_Vendor_Locations.csv,3015114,,Shop N Save,4647 Buttermilk Hollow Road,Buttermilk Hollow,PA,15122,,,,,40.361,-79.906539
food-data/Cleaned_data_files//cleaned_agh_wic.csv,70,Western Pennsylvania Regional Data Center,Allegheny_County_WIC_Vendor_Locations.csv,2739635,,Shop N Save,799 Castle Shannon Boulevard,Castle Shannon,PA,15234,,,,,40.369204,-80.028635
food-data/Cleaned_data_files//cleaned_agh_wic.csv,71,Western Pennsylvania Regional Data Center,Allegheny_County_WIC_Vendor_Locations.csv,2896675,,Shop N Save,1850 Centre Avenue,Centre Ave,PA,15219,,,,,40.44306,-79.98162
food-data/Cleaned_data_files//cleaned_agh_wic.csv,72,Western Pennsylvania Regional Data Center,Allegheny_County_WIC_Vendor_Locations.csv,28396,,Shop N Save,2381 Mountain View Drive,Century Square,PA,15122,,,,,40.344918,-79.946601
food-data/Cleaned_data_files//cleaned_agh_wic.csv,73,Western Pennsylvania Regional Data Center,Allegheny_County_WIC_Vendor_Locations.csv,3168274,,Shop N Save Village,1886 Homeville Road,Duquesne Village,PA,15122,,,,,40.365402,-79.873246
food-data/Cleaned_data_files//cleaned_agh_wic.csv,74,Western Pennsylvania Regional Data Center,Allegheny_County_WIC_Vendor_Locations.csv,3168229,,Shop N Save,917 Butler Street,Glenshaw,PA,15223,,,,,40.511435,-79.949184
food-data/Cleaned_data_files//cleaned_agh_wic.csv,75,Western Pennsylvania Regional Data Center,Allegheny_County_WIC_Vendor_Locations.csv,3123920,,Shop N Save,4548 Broadway Boulevard,Haymaker Village,PA,15146,,,,,40.389155,-79.767195
food-data/Cleaned_data_files//cleaned_agh_wic.csv,76,Western Pennsylvania Regional Data Center,Allegheny_County_WIC_Vendor_Locations.csv,2791443,,Shop N Save,2100 Washington Pike,Heidelberg,PA,15106,,,,,40.38475,-80.09314
food-data/Cleaned_data_files//cleaned_agh_wic.csv,77,Western Pennsylvania Regional Data Center,Allegheny_County_WIC_Vendor_Locations.csv,3168120,,Shop N Save,2362 Golden Mile Highway,Holiday Park,PA,15239,,,,,40.47533,-79.70729
food-data/Cleaned_data_files//cleaned_agh_wic.csv,78,Western Pennsylvania Regional Data Center,Allegheny_County_WIC_Vendor_Locations.csv,3158901,,Shop N Save,600 Market Place Drive,Imperial,PA,15071,,,,,40.440211,-80.241232
food-data/Cleaned_data_files//cleaned_agh_wic.csv,79,Western Pennsylvania Regional Data Center,Allegheny_County_WIC_Vendor_Locations.csv,2805720,,Shop N Save,450 Sixth Street,Lawrenceville,PA,15201,,,,,40.483229,-79.948619
food-data/Cleaned_data_files//cleaned_agh_wic.csv,81,Western Pennsylvania Regional Data Center,Allegheny_County_WIC_Vendor_Locations.csv,2694562,,Shop N Save,125 Virginia Avenue,Mt. Washington,PA,15211,,,,,40.429429,-80.007974
food-data/Cleaned_data_files//cleaned_agh_wic.csv,82,Western Pennsylvania Regional Data Center,Allegheny_County_WIC_Vendor_Locations.csv,2994319,,Shop N Save,2103 Noblestown Road,Noblestown,PA,15205,,,,,40.430659,-80.052001
food-data/Cleaned_data_files//cleaned_agh_wic.csv,83,Western Pennsylvania Regional Data Center,Allegheny_County_WIC_Vendor_Locations.csv,2984266,,Shop N Save,4313 Walnut Street,Olympia,PA,15132,,,,,40.322228,-79.834027
food-data/Cleaned_data_files//cleaned_agh_wic.csv,84,Western Pennsylvania Regional Data Center,Allegheny_County_WIC_Vendor_Locations.csv,3007247,,Shop N Save,1130 Perry Highway,Pines Plaza,PA,15237,,,,,40.54783,-80.0351
food-data/Cleaned_data_files//cleaned_agh_wic.csv,85,Western Pennsylvania Regional Data Center,Allegheny_County_WIC_Vendor_Locations.csv,3054998,,Shop N Save,184 Rochester Road,Rochester Road,PA,15229,,,,,40.519815,-80.018107
food-data/Cleaned_data_files//cleaned_agh_wic.csv,86,Western Pennsylvania Regional Data Center,Allegheny_County_WIC_Vendor_Locations.csv,2844118,,Shop N Save,908 Little Deer Creek Valley Road,Russelton,PA,15076,,,,,40.608671,-79.833507
food-data/Cleaned_data_files//cleaned_agh_wic.csv,87,Western Pennsylvania Regional Data Center,Allegheny_County_WIC_Vendor_Locations.csv,2717654,,Shop N Save,1620 Babcock Boulevard,Shaler,PA,15209,,,,,40.499484,-79.979598
food-data/Cleaned_data_files//cleaned_agh_wic.csv,89,Western Pennsylvania Regional Data Center,Allegheny_County_WIC_Vendor_Locations.csv,51225,,Shur Save,4401 Liberty Avenue,Bloomfield,PA,15224,,,,,40.464046,-79.952134
food-data/Cleaned_data_files//cleaned_agh_wic.csv,92,Western Pennsylvania Regional Data Center,Allegheny_County_WIC_Vendor_Locations.csv,2840342,supermarket,Target,360 East Waterfront Drive,Homestead,PA,15120,,,,,40.410877,-79.910615
food-data/Cleaned_data_files//cleaned_agh_wic.csv,93,Western Pennsylvania Regional Data Center,Allegheny_County_WIC_Vendor_Locations.csv,2954381,supermarket,Target,4004 Monroeville Road,Monroeville,PA,15146,,,,,40.43237,-79.7722
food-data/Cleaned_data_files//cleaned_agh_wic.csv,94,Western Pennsylvania Regional Data Center,Allegheny_County_WIC_Vendor_Locations.csv,2776154,supermarket,Target,600 Chauvet Drive,Robinson,PA,15275,,,,,40.44629,-80.183546
food-data/Cleaned_data_files//cleaned_agh_wic.csv,95,Western Pennsylvania Regional Data Center,Allegheny_County_WIC_Vendor_Locations.csv,91386,supermarket,Target,201 South Hills Village,South Hills Village,PA,15241,,,,,40.343606,-80.057543
food-data/Cleaned_data_files//cleaned_agh_wic.csv,96,Western Pennsylvania Regional Data Center,Allegheny_County_WIC_Vendor_Locations.csv,3148465,supermarket,Wal Mart,2200 Washington Pike,Carnegie,PA,15106,,,,,40.38475,-80.09314
food-data/Cleaned_data_files//cleaned_agh_wic.csv,97,Western Pennsylvania Regional Data Center,Allegheny_County_WIC_Vendor_Locations.csv,91410,supermarket,Wal Mart,4015 Freeport Road,Natrona Heights,PA,15065,,,,,40.646899,-79.710012
food-data/Cleaned_data_files//cleaned_agh_wic.csv,98,Western Pennsylvania Regional Data Center,Allegheny_County_WIC_Vendor_Locations.csv,2774136,supermarket,Wal Mart,250 Summit Park Drive,North Fayette,PA,15275,,,,,40.44778,-80.18038
food-data/Cleaned_data_files//cleaned_agh_wic.csv,99,Western Pennsylvania Regional Data Center,Allegheny_County_WIC_Vendor_Locations.csv,3159029,supermarket,Wal Mart,100 Wal Mart Drive,North Versailles,PA,15137,,,,,40.38609,-79.82254
food-data/Cleaned_data_files//cleaned_agh_wic.csv,100,Western Pennsylvania Regional Data Center,Allegheny_County_WIC_Vendor_Locations.csv,2890876,supermarket,Wal Mart,2010 Village Center Drive,Tarentum,PA,15084,,,,,40.564095,-79.804145
food-data/Cleaned_data_files//cleaned_agh_wic.csv,101,Western Pennsylvania Regional Data Center,Allegheny_County_WIC_Vendor_Locations.csv,3153451,supermarket,Wal Mart,2351 Century Drive,West Mifflin,PA,15122,,,,,40.342403,-79.94663
food-data/Cleaned_data_files//cleaned_growpgh.csv,102,Western Pennsylvania Regional Data Center,growpghgardens201712_readin.xlsx,584,Grow PGH Garden,Angora Gardens,3 Muse Lane,White Oak,PA,15131,,,,https://www.growpittsburgh.org/directory/garden/angora-gardens-1,40.404686,-79.862095
food-data/Cleaned_data_files//cleaned_growpgh.csv,103,Western Pennsylvania Regional Data Center,growpghgardens201712_readin.xlsx,586,Grow PGH Garden,Everybody's Garden,301 West Elizabeth Street,Pittsburgh,PA,15207,,,,https://www.growpittsburgh.org/directory/garden/everybodys-garden,40.406546,-79.945442
food-data/Cleaned_data_files//cleaned_growpgh.csv,104,Western Pennsylvania Regional Data Center,growpghgardens201712_readin.xlsx,587,Grow PGH Garden,EvGard Extension,5108 Lytle Street,Pittsburgh,PA,15207,,,,https://www.growpittsburgh.org/directory/garden/evgard-extension,40.406377,-79.945559
food-data/Cleaned_data_files//cleaned_growpgh.csv,105,Western Pennsylvania Regional Data Center,growpghgardens201712_readin.xlsx,588,Grow PGH Garden,Glen Hazel Communiuty Garden,Johnston Avenue At Roselle Drive,Pittsburgh,PA,15207,,,,https://www.growpittsburgh.org/directory/garden/glen-hazel-communiuty-garden,40.40604,-79.931253
food-data/Cleaned_data_files//cleaned_growpgh.csv,106,Western Pennsylvania Regional Data Center,growpghgardens201712_readin.xlsx,589,Grow PGH Garden,Grow Pittsburgh,6587 Hamilton Avenue #2w,Pittsburgh,PA,15206,,,,https://www.growpittsburgh.org/directory/garden/grow-pittsburgh,40.458481,-79.911381
food-data/Cleaned_data_files//cleaned_growpgh.csv,107,Western Pennsylvania Regional Data Center,growpghgardens201712_readin.xlsx,590,Grow PGH Garden,Lawrenceville Organic Community Garden,Allegheny Cemetery, 4734 Butler Street,PA,15201,,,,https://www.growpittsburgh.org/directory/garden/lawrenceville-organic-community-garden,40.477158,-79.956114
food-data/Cleaned_data_files//cleaned_growpgh.csv,108,Western Pennsylvania Regional Data Center,growpghgardens201712_readin.xlsx,591,Grow PGH Garden,Masjid al Mu'min Madinah Garden,159 Winslow Street,Pittsburgh,PA,15206,,,,https://www.growpittsburgh.org/directory/garden/masjid-al-mumin-madinah-garden,40.46445,-79.911651
food-data/Cleaned_data_files//cleaned_growpgh.csv,109,Western Pennsylvania Regional Data Center,growpghgardens201712_readin.xlsx,592,Grow PGH Garden,South Oakland Community Orchard,3213 Parkview Avenue,Pittsburgh,PA,15213,,,,https://www.growpittsburgh.org/directory/garden/south-oakland-community-orchard,40.429834,-79.953578
food-data/Cleaned_data_files//cleaned_growpgh.csv,111,Western Pennsylvania Regional Data Center,growpghgardens201712_readin.xlsx,594,Grow PGH Garden,Wiggins Garden,Near 3026 Wiggins Street,Pittsburgh,PA,15219,,,,https://www.growpittsburgh.org/directory/garden/wiggins-garden,40.457618,-79.969499
food-data/Cleaned_data_files//cleaned_growpgh.csv,112,Western Pennsylvania Regional Data Center,growpghgardens201712_readin.xlsx,663,Grow PGH Garden,The Samuel and Anna Mae Richardson Community Garden,5427 Willow Street,Bethel Park,PA,15102,,,,https://www.growpittsburgh.org/directory/garden/the-samuel-and-anna-mae-richardson-community-garden,40.323229,-80.0405
food-data/Cleaned_data_files//cleaned_growpgh.csv,113,Western Pennsylvania Regional Data Center,growpghgardens201712_readin.xlsx,664,Grow PGH Garden,Coraopolis Community Garden,411 Broadway Avenue,Coraopolis,PA,15108,,,,https://www.growpittsburgh.org/directory/garden/coraopolis-community-garden,40.516753,-80.160618
food-data/Cleaned_data_files//cleaned_growpgh.csv,114,Western Pennsylvania Regional Data Center,growpghgardens201712_readin.xlsx,665,Grow PGH Garden,Crafton Community Farm,117 West Steuben Street,Crafton,PA,15205,,,,https://www.growpittsburgh.org/directory/garden/crafton-community-farm,40.438964,-80.072817
food-data/Cleaned_data_files//cleaned_growpgh.csv,115,Western Pennsylvania Regional Data Center,growpghgardens201712_readin.xlsx,666,Grow PGH Garden,Community Human Services Teaching Garden,370 Lawn Street,Pittsburgh,PA,15213,,,,https://www.growpittsburgh.org/directory/garden/community-human-services-teaching-garden,40.433691,-79.961356
food-data/Cleaned_data_files//cleaned_growpgh.csv,116,Western Pennsylvania Regional Data Center,growpghgardens201712_readin.xlsx,667,Grow PGH Garden,Landslide Community Farm,3 Beelen Street,Pittsburgh,PA,15213,,,,https://www.growpittsburgh.org/directory/garden/landslide-community-farm,40.43816,-79.97244
food-data/Cleaned_data_files//cleaned_growpgh.csv,117,Western Pennsylvania Regional Data Center,growpghgardens201712_readin.xlsx,668,Grow PGH Garden,Rosalinda Sauro Sirianni Memorial Garden,119 Davis Avenue,Bellevue,PA,15202,,,,https://www.growpittsburgh.org/directory/garden/rosalinda-sauro-sirianni-memorial-garden,40.48879,-80.049169
food-data/Cleaned_data_files//cleaned_growpgh.csv,118,Western Pennsylvania Regional Data Center,growpghgardens201712_readin.xlsx,669,Grow PGH Garden,Second UP Garden,300 Hay Street,Pittsburgh,PA,15221,,,,https://www.growpittsburgh.org/directory/garden/second-up-garden,40.438825,-79.888431
food-data/Cleaned_data_files//cleaned_growpgh.csv,119,Western Pennsylvania Regional Data Center,growpghgardens201712_readin.xlsx,670,Grow PGH Garden,Earl Brooks Community Garden,222 Robinson Street,Pittsburgh,PA,15213,,,,https://www.growpittsburgh.org/directory/garden/earl-brooks-community-garden,40.441165,-79.965404
food-data/Cleaned_data_files//cleaned_growpgh.csv,121,Western Pennsylvania Regional Data Center,growpghgardens201712_readin.xlsx,672,Grow PGH Garden,Ballfield Farm,Crispen Street,Pittsburgh,PA,15214,,,,https://www.growpittsburgh.org/directory/garden/ballfield-farm,40.46849,-80.016561
food-data/Cleaned_data_files//cleaned_growpgh.csv,122,Western Pennsylvania Regional Data Center,growpghgardens201712_readin.xlsx,673,Grow PGH Garden,Boxy Caufield Memorial Garden: Allegheny YMCA,600 West North Avenue,Pittsburgh,PA,15212,,,,https://www.growpittsburgh.org/directory/garden/boxy-caufield-memorial-garden-allegheny-ymca,40.454624,-80.012922
food-data/Cleaned_data_files//cleaned_growpgh.csv,123,Western Pennsylvania Regional Data Center,growpghgardens201712_readin.xlsx,674,Grow PGH Garden,Hazelwood YMCA Community Garden,4713 Chatsworth Avenue,Pittsburgh,PA,15207,,,,https://www.growpittsburgh.org/directory/garden/hazelwood-ymca-community-garden,40.413082,-79.944132
food-data/Cleaned_data_files//cleaned_growpgh.csv,124,Western Pennsylvania Regional Data Center,growpghgardens201712_readin.xlsx,675,Grow PGH Garden,Miss Mary's Garden: Homewood Brushton YMCA,7140 Bennett Street,Pittsburgh,PA,15208,,,,https://www.growpittsburgh.org/directory/garden/miss-marys-garden-homewood-brushton-ymca,40.456529,-79.898291
food-data/Cleaned_data_files//cleaned_growpgh.csv,125,Western Pennsylvania Regional Data Center,growpghgardens201712_readin.xlsx,676,Grow PGH Garden,Sheridan Avenue Orchard,310 Sheridan Avenue,Pittsburgh,PA,15206,,,,https://www.growpittsburgh.org/directory/garden/sheridan-avenue-orchard,40.463474,-79.921924
food-data/Cleaned_data_files//cleaned_growpgh.csv,126,Western Pennsylvania Regional Data Center,growpghgardens201712_readin.xlsx,677,Grow PGH Garden,Centre Ave YMCA Garden,2621 Centre Avenue,Pittsburgh,PA,15219,,,,https://www.growpittsburgh.org/directory/garden/centre-ave-ymca-garden-1,40.447201,-79.967894
food-data/Cleaned_data_files//cleaned_growpgh.csv,127,Western Pennsylvania Regional Data Center,growpghgardens201712_readin.xlsx,678,Grow PGH Garden,Allison Park Elementary Community Garden,803 Mcgovern Road,Houston,PA,15342,,,,https://www.growpittsburgh.org/directory/garden/allison-park-elementary-community-garden-3,40.231664,-80.226758
food-data/Cleaned_data_files//cleaned_growpgh.csv,128,Western Pennsylvania Regional Data Center,growpghgardens201712_readin.xlsx,679,Grow PGH Garden,Avonworth Middle School,258 Joseph's Lane,Pittsburgh,PA,15237,,,,https://www.growpittsburgh.org/directory/garden/avonworth-middle-school-3,40.532346,-80.078434
food-data/Cleaned_data_files//cleaned_growpgh.csv,129,Western Pennsylvania Regional Data Center,growpghgardens201712_readin.xlsx,680,Grow PGH Garden,Borland Green Cooperative,5806 Black Street,Pittsburgh,PA,15206,,,,https://www.growpittsburgh.org/directory/garden/borland-green-cooperative-2,40.467393,-79.924427
food-data/Cleaned_data_files//cleaned_growpgh.csv,130,Western Pennsylvania Regional Data Center,growpghgardens201712_readin.xlsx,681,Grow PGH Garden,Carnegie Elementary School,301 Franklin Avenue,Carnegie,PA,15106,,,,https://www.growpittsburgh.org/directory/garden/carnegie-elementary-school-2,40.401334,-80.081874
food-data/Cleaned_data_files//cleaned_growpgh.csv,132,Western Pennsylvania Regional Data Center,growpghgardens201712_readin.xlsx,684,Grow PGH Garden,Colfax Elementary,2332 Beechwood Boulevard,Pittsburgh,PA,15217,,,,https://www.growpittsburgh.org/directory/garden/colfax-elementary-2,40.433127,-79.915417
food-data/Cleaned_data_files//cleaned_growpgh.csv,133,Western Pennsylvania Regional Data Center,growpghgardens201712_readin.xlsx,685,Grow PGH Garden,Community Day School of Pittsburgh,6424 Forward Avenue,Pittsburgh,PA,15217,,,,https://www.growpittsburgh.org/directory/garden/community-day-school-of-pittsburgh-2,40.427442,-79.917825
food-data/Cleaned_data_files//cleaned_growpgh.csv,134,Western Pennsylvania Regional Data Center,growpghgardens201712_readin.xlsx,686,Grow PGH Garden,Dilworth Traditional Academy,6200 Stanton Avenue,Pittsburgh,PA,15206,,,,https://www.growpittsburgh.org/directory/garden/dilworth-traditional-academy-2,40.468805,-79.917808
food-data/Cleaned_data_files//cleaned_growpgh.csv,135,Western Pennsylvania Regional Data Center,growpghgardens201712_readin.xlsx,687,Grow PGH Garden,Fort LeBoeuf Middle School,865 Cherry Street,Waterford,PA,16441,,,,https://www.growpittsburgh.org/directory/garden/fort-leboeuf-middle-school-2,41.951436,-79.986455
food-data/Cleaned_data_files//cleaned_growpgh.csv,136,Western Pennsylvania Regional Data Center,growpghgardens201712_readin.xlsx,688,Grow PGH Garden,Greenock Elementary School,1101 Greenock Buena Vista Road,McKeesport,PA,15135,,,,https://www.growpittsburgh.org/directory/garden/greenock-elementary-school-2,40.311881,-79.8029
food-data/Cleaned_data_files//cleaned_growpgh.csv,137,Western Pennsylvania Regional Data Center,growpghgardens201712_readin.xlsx,689,Grow PGH Garden,Iroquois Elementary School,4231 Morse Street,Erie,PA,16511,,,,https://www.growpittsburgh.org/directory/garden/iroquois-elementary-school-2,42.153881,-80.012094
food-data/Cleaned_data_files//cleaned_growpgh.csv,138,Western Pennsylvania Regional Data Center,growpghgardens201712_readin.xlsx,690,Grow PGH Garden,MAMS Community Garden,800 Thurston Road,Meadville,PA,16335,,,,https://www.growpittsburgh.org/directory/garden/mams-community-garden-2,41.633276,-80.124376
food-data/Cleaned_data_files//cleaned_growpgh.csv,139,Western Pennsylvania Regional Data Center,growpghgardens201712_readin.xlsx,691,Grow PGH Garden,Pittsburgh Arsenal,220 Zeroth Street,Pittsburgh,PA,15201,,,,https://www.growpittsburgh.org/directory/garden/pittsburgh-arsenal-2,40.467734,-79.962522
food-data/Cleaned_data_files//cleaned_growpgh.csv,140,Western Pennsylvania Regional Data Center,growpghgardens201712_readin.xlsx,692,Grow PGH Garden,Pittsburgh Langley,2940 Sheraden Boulevard,Pittsburgh,PA,15204,,,,https://www.growpittsburgh.org/directory/garden/pittsburgh-langley-2,40.453644,-80.054031
food-data/Cleaned_data_files//cleaned_growpgh.csv,141,Western Pennsylvania Regional Data Center,growpghgardens201712_readin.xlsx,693,Grow PGH Garden,Pittsburgh Linden School Garden,725 S Linden Avenue,Pittsburgh,PA,15208,,,,https://www.growpittsburgh.org/directory/garden/pittsburgh-linden-school-garden-2,40.445514,-79.916283
food-data/Cleaned_data_files//cleaned_growpgh.csv,142,Western Pennsylvania Regional Data Center,growpghgardens201712_readin.xlsx,694,Grow PGH Garden,Pittsburgh Miller African Centered Academy,2055 Bedford Avenue,Pittsburgh,PA,15219,,,,https://www.growpittsburgh.org/directory/garden/pittsburgh-miller-african-centered-academy-2,40.447077,-79.981061
food-data/Cleaned_data_files//cleaned_growpgh.csv,143,Western Pennsylvania Regional Data Center,growpghgardens201712_readin.xlsx,695,Grow PGH Garden,Pittsburgh Montessori PreK 5,201 S Graham Street,Pittsburgh,PA,15206,,,,https://www.growpittsburgh.org/directory/garden/pittsburgh-montessori-prek-5-2,40.462489,-79.935596
food-data/Cleaned_data_files//cleaned_growpgh.csv,145,Western Pennsylvania Regional Data Center,growpghgardens201712_readin.xlsx,697,Grow PGH Garden,Pittsburgh Urban Christian School,809 Center Street,Pittsburgh,PA,15221,,,,https://www.growpittsburgh.org/directory/garden/pittsburgh-urban-christian-school-2,40.441483,-79.882937
food-data/Cleaned_data_files//cleaned_growpgh.csv,147,Western Pennsylvania Regional Data Center,growpghgardens201712_readin.xlsx,699,Grow PGH Garden,SSA Farm at the Junior School,400 S. Braddock Avenue,Pittsburgh,PA,15221,,,,https://www.growpittsburgh.org/directory/garden/ssa-farm-at-the-junior-school-2,40.444237,-79.897476
food-data/Cleaned_data_files//cleaned_growpgh.csv,148,Western Pennsylvania Regional Data Center,growpghgardens201712_readin.xlsx,700,Grow PGH Garden,SSA Farm at the Middle School,500 Squaw Run Road East,Pittsburgh,PA,15238,,,,https://www.growpittsburgh.org/directory/garden/ssa-farm-at-the-middle-school-2,40.52817,-79.880648
food-data/Cleaned_data_files//cleaned_growpgh.csv,149,Western Pennsylvania Regional Data Center,growpghgardens201712_readin.xlsx,701,Grow PGH Garden,SSA Farm at the Senior School,423 Fox Chapel Road,Pittsburgh,PA,15238,,,,https://www.growpittsburgh.org/directory/garden/ssa-farm-at-the-senior-school-2,40.52247,-79.882689
food-data/Cleaned_data_files//cleaned_growpgh.csv,150,Western Pennsylvania Regional Data Center,growpghgardens201712_readin.xlsx,702,Grow PGH Garden,St. Paul African Methodist Episcopal Church,414 Orchard Place,Pittsburgh,PA,15210,,,,https://www.growpittsburgh.org/directory/garden/st-paul-african-methodist-episcopal-church-2,40.41792,-79.995982
food-data/Cleaned_data_files//cleaned_growpgh.csv,151,Western Pennsylvania Regional Data Center,growpghgardens201712_readin.xlsx,703,Grow PGH Garden,The Environmental Charter Lower School Edible Schoolyard,309 South Braddock Avenue,Pittsburgh,PA,15221,,,,https://www.growpittsburgh.org/directory/garden/the-environmental-charter-lower-school-edible-schoolyard-2,40.444922,-79.895715
food-data/Cleaned_data_files//cleaned_growpgh.csv,152,Western Pennsylvania Regional Data Center,growpghgardens201712_readin.xlsx,704,Grow PGH Garden,The Environmental Charter Upper School Living Laboratory,829 Milton Street,Pittsburgh,PA,15218,,,,https://www.growpittsburgh.org/directory/garden/the-environmental-charter-upper-school-living-laboratory-2,40.436015,-79.89694
food-data/Cleaned_data_files//cleaned_growpgh.csv,153,Western Pennsylvania Regional Data Center,growpghgardens201712_readin.xlsx,705,Grow PGH Garden,The Neighborhood Academy,709 N Aiken Avenue,Pittsburgh,PA,15206,,,,https://www.growpittsburgh.org/directory/garden/the-neighborhood-academy-2,40.472894,-79.932793
food-data/Cleaned_data_files//cleaned_growpgh.csv,154,Western Pennsylvania Regional Data Center,growpghgardens201712_readin.xlsx,706,Grow PGH Garden,Urban League Charter School,327 N Negley Avenue,Pittsburgh,PA,15206,,,,https://www.growpittsburgh.org/directory/garden/urban-league-charter-school-2,40.466733,-79.929864
food-data/Cleaned_data_files//cleaned_growpgh.csv,155,Western Pennsylvania Regional Data Center,growpghgardens201712_readin.xlsx,707,Grow PGH Garden,Waldorf School of Pittsburgh,201 S Winebiddle Street,Pittsburgh,PA,15224,,,,https://www.growpittsburgh.org/directory/garden/waldorf-school-of-pittsburgh-2,40.463958,-79.942294
food-data/Cleaned_data_files//cleaned_growpgh.csv,156,Western Pennsylvania Regional Data Center,growpghgardens201712_readin.xlsx,708,Grow PGH Garden,West End Children's Center,42 Wabash Street,Pittsburgh,PA,15220,,,,https://www.growpittsburgh.org/directory/garden/west-end-childrens-center-2,40.440192,-80.03457
food-data/Cleaned_data_files//cleaned_growpgh.csv,157,Western Pennsylvania Regional Data Center,growpghgardens201712_readin.xlsx,709,Grow PGH Garden,Frick Greenhouse,7227 Reynolds Street,Pittsburgh,PA,15208,,,,https://www.growpittsburgh.org/directory/garden/frick-greenhouse-1,40.447816,-79.901057
food-data/Cleaned_data_files//cleaned_growpgh.csv,158,Western Pennsylvania Regional Data Center,growpghgardens201712_readin.xlsx,710,Grow PGH Garden,Shiloh Farm,7227 Thomas Boulevard,Pittsburgh,PA,15208,,,,https://www.growpittsburgh.org/directory/garden/shiloh-farm-1,40.450512,-79.898805
food-data/Cleaned_data_files//cleaned_growpgh.csv,160,Western Pennsylvania Regional Data Center,growpghgardens201712_readin.xlsx,712,Grow PGH Garden,Bandi Schaum Garden,2315 Sidney Street,Pittsburgh,PA,15203,,,,https://www.growpittsburgh.org/directory/garden/bandi-schaum-garden,40.429303,-79.972425
food-data/Cleaned_data_files//cleaned_growpgh.csv,161,Western Pennsylvania Regional Data Center,growpghgardens201712_readin.xlsx,713,Grow PGH Garden,East Field Cooperative Garden,5543 Black Street,Pittsburgh,PA,15206,,,,https://www.growpittsburgh.org/directory/garden/east-field-cooperative-garden,40.469404,-79.928441
food-data/Cleaned_data_files//cleaned_growpgh.csv,162,Western Pennsylvania Regional Data Center,growpghgardens201712_readin.xlsx,715,Grow PGH Garden,Elliott Community Garden,706 Lorenz Avenue,Pittsburgh,PA,15220,,,,https://www.growpittsburgh.org/directory/garden/elliott-community-garden-1,40.44501,-80.039497
food-data/Cleaned_data_files//cleaned_growpgh.csv,163,Western Pennsylvania Regional Data Center,growpghgardens201712_readin.xlsx,716,Grow PGH Garden,Fineview Community Garden,13 Carrie Street,Pittsburgh,PA,15212,,,,https://www.growpittsburgh.org/directory/garden/fineview-community-garden,40.461294,-80.002021
food-data/Cleaned_data_files//cleaned_growpgh.csv,164,Western Pennsylvania Regional Data Center,growpghgardens201712_readin.xlsx,717,Grow PGH Garden,Frazier Farms Community Garden,3638 Frazier Street,Pittsburgh,PA,15213,,,,https://www.growpittsburgh.org/directory/garden/frazier-farms-community-garden,40.429735,-79.954579
food-data/Cleaned_data_files//cleaned_growpgh.csv,165,Western Pennsylvania Regional Data Center,growpghgardens201712_readin.xlsx,718,Grow PGH Garden,Garden of Etna,9 Short Alley,Pittsburgh,PA,15223,,,,https://www.growpittsburgh.org/directory/garden/garden-of-etna,40.496077,-79.945871
food-data/Cleaned_data_files//cleaned_growpgh.csv,166,Western Pennsylvania Regional Data Center,growpghgardens201712_readin.xlsx,719,Grow PGH Garden,Garden On Gearing,409-411 Gearing Avenue,Pittsburgh,PA,15210,,,,https://www.growpittsburgh.org/directory/garden/garden-on-gearing,40.418085,-80.00523
food-data/Cleaned_data_files//cleaned_growpgh.csv,167,Western Pennsylvania Regional Data Center,growpghgardens201712_readin.xlsx,720,Grow PGH Garden,Glenn Avenue Community Garden,Glenn Avenue & Swissvale Avenue,Pittsburgh,PA,15221,,,,https://www.growpittsburgh.org/directory/garden/glenn-avenue-community-garden,40.444612,-79.875885
food-data/Cleaned_data_files//cleaned_growpgh.csv,168,Western Pennsylvania Regional Data Center,growpghgardens201712_readin.xlsx,721,Grow PGH Garden,Harmar Street Community Garden,331 Harmar Street,Pittsburgh,PA,15219,,,,https://www.growpittsburgh.org/directory/garden/harmar-street-community-garden,40.457406,-79.967969
food-data/Cleaned_data_files//cleaned_growpgh.csv,169,Western Pennsylvania Regional Data Center,growpghgardens201712_readin.xlsx,722,Grow PGH Garden,Highland Park Community Gardens,Stanton Avenue,Pittsburgh,PA,15206,,,,https://www.growpittsburgh.org/directory/garden/highland-park-community-gardens,40.472064,-79.913673
food-data/Cleaned_data_files//cleaned_growpgh.csv,170,Western Pennsylvania Regional Data Center,growpghgardens201712_readin.xlsx,723,Grow PGH Garden,Kincaid Street Community Garden,5409 Kincaid Street,Pittsburgh,PA,15206,,,,https://www.growpittsburgh.org/directory/garden/kincaid-street-community-garden,40.466375,-79.934859
food-data/Cleaned_data_files//cleaned_growpgh.csv,171,Western Pennsylvania Regional Data Center,growpghgardens201712_readin.xlsx,728,Grow PGH Garden,Kiwanis Community Garden,2801 Jenny Lind Street,McKeesport,PA,15132,,,,https://www.growpittsburgh.org/directory/garden/kiwanis-community-garden,40.339138,-79.844107
food-data/Cleaned_data_files//cleaned_growpgh.csv,172,Western Pennsylvania Regional Data Center,growpghgardens201712_readin.xlsx,729,Grow PGH Garden,Larimer Community Garden,300 Larimer Avenue,Pittsburgh,PA,15206,,,,https://www.growpittsburgh.org/directory/garden/larimer-community-garden,40.46432,-79.91601
food-data/Cleaned_data_files//cleaned_growpgh.csv,173,Western Pennsylvania Regional Data Center,growpghgardens201712_readin.xlsx,730,Grow PGH Garden,Lawrenceville Community Gardens,4200 Sherrod Street,Pittsburgh,PA,15201,,,,https://www.growpittsburgh.org/directory/garden/lawrenceville-community-gardens,40.467567,-79.956557
food-data/Cleaned_data_files//cleaned_growpgh.csv,174,Western Pennsylvania Regional Data Center,growpghgardens201712_readin.xlsx,731,Grow PGH Garden,Martin Luther King Jr. Community Garden,219 Kirkpatrick Street,Pittsburgh,PA,15219,,,,https://www.growpittsburgh.org/directory/garden/martin-luther-king-jr-community-garden,40.440368,-79.983611
food-data/Cleaned_data_files//cleaned_growpgh.csv,175,Western Pennsylvania Regional Data Center,growpghgardens201712_readin.xlsx,732,Grow PGH Garden,Morningside Community Garden,1924 Chislett Street,Pittsburgh,PA,15206,,,,https://www.growpittsburgh.org/directory/garden/morningside-community-garden,40.486784,-79.923468
food-data/Cleaned_data_files//cleaned_growpgh.csv,176,Western Pennsylvania Regional Data Center,growpghgardens201712_readin.xlsx,733,Grow PGH Garden,Mt. Oliver Borough Community Garden,Transverse Park,Mount Oliver,PA,15210,,,,https://www.growpittsburgh.org/directory/garden/mt-oliver-borough-community-garden,40.406719,-79.984659
food-data/Cleaned_data_files//cleaned_growpgh.csv,177,Western Pennsylvania Regional Data Center,growpghgardens201712_readin.xlsx,734,Grow PGH Garden,Penn Hills Community Garden,1162 Jefferson Road,Penn Hills,PA,15235,,,,https://www.growpittsburgh.org/directory/garden/penn-hills-community-garden,40.447638,-79.798817
food-data/Cleaned_data_files//cleaned_growpgh.csv,178,Western Pennsylvania Regional Data Center,growpghgardens201712_readin.xlsx,735,Grow PGH Garden,Stanton Heights Allegheny Cemetery Community Garden,Stanton Avenue,Pittsburgh,PA,15201,,,,https://www.growpittsburgh.org/directory/garden/stanton-heights-allegheny-cemetery-community-garden,40.473711,-79.961237
food-data/Cleaned_data_files//cleaned_growpgh.csv,179,Western Pennsylvania Regional Data Center,growpghgardens201712_readin.xlsx,736,Grow PGH Garden,The Harry Orlando Memorial Community Garden,2205 Fifth Avenue,Pittsburgh,PA,15219,,,,https://www.growpittsburgh.org/directory/garden/the-harry-orlando-memorial-community-garden,40.438247,-79.973943
food-data/Cleaned_data_files//cleaned_growpgh.csv,180,Western Pennsylvania Regional Data Center,growpghgardens201712_readin.xlsx,738,Grow PGH Garden,The Octopus Garden,133 S. Aiken Avenue,Pittsburgh,PA,15206,,,,https://www.growpittsburgh.org/directory/garden/the-octopus-garden,40.463591,-79.936771